137P/Shoemaker-Levy,e,4.8589,232.9294,141.2045,4.524305,0.1024180,0.57275140,260.5960,12/02.0/2025,2000,g 11.0,4.0
# From MPEC 2025-W75
138P/Shoemaker-Levy,e,10.0984,309.2191,95.7539,3.616097,0.1433323,0.53145842,343.9010,12/02.0/2025,2000,g 15.0,6.0
# From MPEC 2025-W75
139P/Vaisala-Oterma,e,2.3383,242.1332,166.0685,4.512588,0.1028171,0.24820237,298.5061,12/02.0/2025,2000,g  9.5,4.0
# From MPEC 2025-W75
140P/Bowell-Skiff,e,3.6812,343.3611,172.1457,6.414791,0.0606639,0.69496353,230.5830,12/02.0/2025,2000,g 11.5,6.0
# From MPEC 2025-W75
141P/Machholz,e,13.9606,241.7741,153.6468,3.056673,0.1844296,0.73583718,333.8127,12/02.0/2025,2000,g 12.0,12.0
# From MPEC 2015-KD9
141P-A/Machholz,e,13.9423,153.4955,241.9362,3.056937,0.1844057,0.73585660,333.7490,12/02.0/2025,2000,g 12.0,12.0
# From MPC 37026
141P-D/Machholz,e,13.8341,153.2205,242.1849,3.065490,0.1836345,0.73679617,329.2217,12/02.0/2025,2000,g 12.0,12.0
# From MPC186636
141P-H/Machholz,e,14.0167,241.8495,153.6212,3.045716,0.1854257,0.73458514,337.6042,12/02.0/2025,2000,g 18.5,4.0
# From MPEC 2022-SU8
141P-I/Machholz,e,13.9424,153.4508,241.9459,3.047375,0.1852743,0.73508546,335.4281,12/02.0/2025,2000,g 17.5,4.0
# From MPEC 2025-W75
142P/Ge-Wang,e,12.2432,175.9626,174.0440,5.003570,0.0880611,0.49576929,146.7432,12/02.0/2025,2000,g  8.5,6.0
# From MPEC 2025-W75
143P/Kowal-Mrkos,e,5.4014,242.1450,304.6655,4.761612,0.0948578,0.37909030,322.9521,12/02.0/2025,2000,g 13.5,2.0
# From MPEC 2025-W75
144P/Kushida,e,3.9312,242.9243,216.3769,3.834578,0.1312586,0.63494401,88.7499,12/02.0/2025,2000,g  8.5,8.0
# From MPEC 2025-WD0
145P/Shoemaker-Levy,e,11.2782,26.7667,10.4194,4.129289,0.1174603,0.54236249,352.8426,12/02.0/2025,2000,g 13.5,4.0
# From MPEC 2025-W75
146P/Shoemaker-LINEAR,e,23.1168,53.3339,317.0223,4.022924,0.1221494,0.64759251,59.0735,12/02.0/2025,2000,g 15.0,4.0
# From MPEC 2025-W75
147P/Kushida-Muramatsu,e,2.3112,91.6649,348.6283,4.009206,0.1227768,0.21161043,89.1432,12/02.0/2025,2000,g 14.0,4.0
# From MPEC 2025-W75
148P/Anderson-LINEAR,e,3.6588,89.1950,8.0935,3.620242,0.1430862,0.55039282,181.2164,12/02.0/2025,2000,g 16.0,2.0
# From MPEC 2025-W75
149P/Mueller,e,34.2474,143.7207,30.1085,4.134176,0.1172521,0.32466793,315.5835,12/02.0/2025,2000,g  8.0,8.0
# From MPEC 2025-W75
150P/LONEOS,e,18.5481,272.0551,246.1250,3.872170,0.1293518,0.54932662,81.4129,12/02.0/2025,2000,g 13.5,4.0
# From MPEC 2025-W75
151P/Helin,e,4.7220,143.0594,216.1991,5.767637,0.0711553,0.57228021,263.5656,12/02.0/2025,2000,g 10.0,6.0
# From MPEC 2025-W75
152P/Helin-Lawrence,e,9.8796,91.7764,164.4077,4.486220,0.1037250,0.30654644,147.2476,12/02.0/2025,2000,g 11.5,4.0
# From MPEC 2025-W75
153P/Ikeya-Zhang,e,28.5037,93.8048,34.2046,50.77507,0.0027241,0.99025607,0.0000,03/15.3583/2002,2000,g  7.0,4.0
# From MPEC 2025-W75
154P/Brewington,e,17.6399,342.9948,47.9157,4.793716,0.0939065,0.67617800,50.4139,12/02.0/2025,2000,g  2.5,12.0
# From MPEC 2025-W75
155P/Shoemaker,e,6.4109,97.1568,14.5418,6.572497,0.0584936,0.72773770,129.0400,12/02.0/2025,2000,g 10.0,4.8
# From MPEC 2025-W75
156P/Russell-LINEAR,e,17.2576,35.3274,0.5316,3.462635,0.1529657,0.61475207,281.2862,12/02.0/2025,2000,g 15.5,2.0
# From MPEC 2025-W75
157P/Tritton,e,12.4253,287.4955,155.1935,3.548272,0.1474615,0.55672638,173.8164,12/02.0/2025,2000,g 10.0,4.0
# From MPEC 2022-VC5
157P-B/Tritton,e,12.4264,153.8686,287.2325,3.102755,0.1803362,0.49985085,212.8732,12/02.0/2025,2000,g 15.7,4.0
# From MPEC 2025-W75
158P/Kowal-LINEAR,e,7.4890,124.1985,232.9550,5.722040,0.0720075,0.11549798,82.8724,12/02.0/2025,2000,g  9.0,4.0
# From MPEC 2025-W75
159P/LONEOS,e,23.4786,54.9373,4.7506,5.855957,0.0695516,0.38234181,191.0343,12/02.0/2025,2000,g 10.0,4.0
# From MPEC 2025-W75
160P/LINEAR,e,15.5892,333.3163,12.7916,3.780336,0.1340937,0.52490209,294.1288,12/02.0/2025,2000,g 15.5,2.0
# From MPEC 2025-W75
161P/Hartley-IRAS,e,95.7880,1.4813,47.0779,7.718520,0.0459624,0.83610186,343.4293,12/02.0/2025,2000,g  8.5,6.0
# From MPEC 2025-W75
162P/SidingSpring,e,27.5519,30.8701,357.2464,3.091484,0.1813232,0.58287883,329.7479,12/02.0/2025,2000,g 12.0,4.0
# From MPEC 2025-W75
163P/NEAT,e,12.7244,102.0687,349.6673,3.760127,0.1351762,0.45347908,311.7447,12/02.0/2025,2000,g 14.5,4.0
# From MPEC 2025-WD0
164P/Christensen,e,16.2763,88.2672,325.9298,3.652353,0.1412033,0.54143819,26.6351,12/02.0/2025,2000,g 11.0,4.0
# From MPEC 2025-W75
165P/LINEAR,e,15.9125,0.6285,125.9421,17.81520,0.0131074,0.61948990,121.8573,12/02.0/2025,2000,g 11.5,2.0
# From MPEC 2025-W75
166P/NEAT,e,15.3862,64.3358,321.9903,13.84923,0.0191234,0.38217926,164.1530,12/02.0/2025,2000,g  5.5,4.0
# From MPEC 2025-W75
167P/CINEOS,e,19.0726,295.8438,344.3237,16.24576,0.0150520,0.26788298,135.8133,12/02.0/2025,2000,g  9.5,2.0
# From MPEC 2025-W75
168P/Hergenrother,e,21.5945,355.3803,15.1062,3.586067,0.1451365,0.62110542,334.5566,12/02.0/2025,2000,g 15.5,4.0
# From MPEC 2025-W75
169P/NEAT,e,11.2852,176.0440,218.1327,2.603656,0.2346004,0.76795754,291.1745,12/02.0/2025,2000,g 16.0,2.0
# From MPEC 2025-W75
170P/Christensen,e,10.1342,142.6354,224.6008,4.191304,0.1148630,0.30542779,110.4782,12/02.0/2025,2000,g 12.0,4.0
# From MPEC 2025-WD0
171P/Spahr,e,21.9549,101.6940,347.0695,3.553461,0.1471386,0.50291000,10.0022,12/02.0/2025,2000,g 13.5,4.0
# From MPEC 2025-W75
172P/Yeung,e,11.2219,30.8804,208.8704,4.224596,0.1135080,0.20508642,3.3635,12/02.0/2025,2000,g 13.0,4.0
# From MPEC 2025-W75
173P/Mueller,e,16.4939,100.3451,29.3406,5.716776,0.0721070,0.26244717,104.1655,12/02.0/2025,2000,g  7.5,4.0
# From MPEC 2025-W75
175P/Hergenrother,e,4.9301,109.8083,74.5610,3.691616,0.1389567,0.37514219,321.7891,12/02.0/2025,2000,g 14.0,4.0
# From MPEC 2025-W75
177P/Barnard,e,30.9603,271.5925,61.0430,24.50088,0.0081270,0.95407374,57.1854,12/02.0/2025,2000,g 15.0,4.0
# From MPEC 2025-W75
178P/Hug-Bell,e,11.0929,102.7838,297.9667,3.632679,0.1423520,0.48217031,279.3562,12/02.0/2025,2000,g 13.5,4.0
# From MPEC 2025-W75
179P/Jedicke,e,19.8892,115.5051,297.2468,5.937825,0.0681182,0.30519368,87.2109,12/02.0/2025,2000,g  2.5,8.0
# From MPEC 2025-W75
180P/NEAT,e,16.8611,84.5556,94.5942,3.867395,0.1295914,0.35400055,113.2283,12/02.0/2025,2000,g 11.0,4.0
# From MPEC 2025-W75
181P/Shoemaker-Levy,e,17.4720,35.4246,336.3083,3.879647,0.1289780,0.69956894,183.6698,12/02.0/2025,2000,g 11.5,4.0
# From MPEC 2025-W75
182P/LONEOS,e,16.2300,72.4451,54.2280,2.948375,0.1946838,0.66404552,252.8536,12/02.0/2025,2000,g 18.0,4.0
# From MPEC 2025-W75
183P/Korlevic-Juric,e,18.7186,3.3782,161.9800,4.716170,0.0962321,0.10311450,297.8312,12/02.0/2025,2000,g 12.5,2.0
# From MPEC 2025-W75
184P/Lovas,e,4.5689,173.2263,186.5886,3.801471,0.1329770,0.54958988,247.9047,12/02.0/2025,2000,g 13.5,4.0
# From MPEC 2025-W75
185P/Petriew,e,14.0061,214.1245,181.9241,3.100051,0.1805721,0.69924358,157.6949,12/02.0/2025,2000,g 15.0,4.0
# From MPEC 2025-W75
186P/Garradd,e,28.6973,325.7640,268.0025,4.861870,0.0919389,0.12324011,235.1922,12/02.0/2025,2000,g  7.5,4.0
# From MPEC 2025-W75
187P/LINEAR,e,13.6693,109.8484,131.9776,4.546238,0.1016777,0.15658632,279.0923,12/02.0/2025,2000,g  9.0,4.0
# From MPEC 2025-W75
188P/LINEAR-Mueller,e,10.5257,358.9107,26.8481,4.363740,0.1081224,0.41653633,345.6933,12/02.0/2025,2000,g 11.5,4.0
# From MPEC 2025-W75
189P/NEAT,e,20.1214,281.6811,16.2089,2.937932,0.1957228,0.59154189,232.8549,12/02.0/2025,2000,g 19.0,4.0
# From MPEC 2025-W75
190P/Mueller,e,2.1767,335.4217,50.5351,4.230975,0.1132514,0.52310997,38.8309,12/02.0/2025,2000,g 13.0,4.0
# From MPEC 2025-W75
191P/McNaught,e,8.8396,98.1778,284.2616,3.641370,0.1418427,0.38492483,243.7078,12/02.0/2025,2000,g 13.0,4.0
# From MPEC 2025-W75
192P/Shoemaker-Levy,e,24.5764,51.5394,313.0225,6.446426,0.0602179,0.77328528,33.5151,12/02.0/2025,2000,g 15.0,4.0
# From MPEC 2025-W75
193P/LINEAR-NEAT,e,10.6777,335.1826,8.0975,3.580110,0.1454988,0.39246051,227.2412,12/02.0/2025,2000,g 14.0,4.0
# From MPEC 2025-W75
194P/LINEAR,e,11.8031,349.4976,128.6497,4.123674,0.1177003,0.56341230,78.4613,12/02.0/2025,2000,g 16.0,4.0
# From MPEC 2025-WD0
195P/Hill,e,36.4150,243.0894,250.6566,6.440560,0.0603002,0.31052249,7.1142,12/02.0/2025,2000,g  8.5,4.0
# From MPEC 2025-W75
196P/Tichy,e,19.2910,24.1256,12.1482,3.806929,0.1326911,0.42729989,149.9453,12/02.0/2025,2000,g 13.5,4.0
# From MPEC 2025-W75
197P/LINEAR,e,25.1999,66.1231,189.9927,2.911086,0.1984365,0.61745863,217.1375,12/02.0/2025,2000,g 16.5,2.0
# From MPEC 2025-WD0
198P/ODAS,e,1.3393,358.3293,69.2794,3.630878,0.1424579,0.44782312,1.5489,12/02.0/2025,2000,g 12.5,4.0
# From MPEC 2025-W75
199P/Shoemaker,e,24.9397,92.3424,191.7437,5.871420,0.0692770,0.50421547,58.7377,12/02.0/2025,2000,g 10.0,4.0
# From MPEC 2025-W75
200P/Larsen,e,12.0965,234.7307,134.4519,4.954606,0.0893697,0.33082120,207.2804,12/02.0/2025,2000,g  9.0,4.0
# From MPEC 2025-W75
201P/LONEOS,e,5.7335,19.6788,41.6544,3.354495,0.1604218,0.63743891,264.5047,12/02.0/2025,2000,g 14.0,4.0
# From MPEC 2025-W75
202P/Scotti,e,2.1417,177.3002,274.5230,4.099383,0.1187480,0.25098705,66.9305,12/02.0/2025,2000,g 13.5,4.0
# From MPEC 2025-W75
203P/Korlevic,e,2.9762,290.2202,154.9670,4.668381,0.0977135,0.31636047,204.7007,12/02.0/2025,2000,g 14.5,2.0
# From MPEC 2025-W75
204P/LINEAR-NEAT,e,6.5984,108.4721,356.7442,3.584346,0.1452410,0.48830662,161.2942,12/02.0/2025,2000,g 14.0,4.0
# From MPEC 2025-W75
205P/Giacobini,e,15.2996,179.6246,154.1376,3.543352,0.1477688,0.56714448,209.8107,12/02.0/2025,2000,g 13.0,4.0
# From MPEC 2025-WD0
206P/Barnard-Boattini,e,33.6337,202.3142,189.5625,3.492773,0.1509901,0.55041528,261.6631,12/02.0/2025,2000,g 19.0,4.0
# From MPEC 2025-W75
207P/NEAT,e,10.1972,198.1197,273.0551,3.886830,0.1286206,0.75854193,86.1853,12/02.0/2025,2000,g 16.0,4.0
# From MPEC 2025-W75
208P/McMillan,e,4.4066,36.2809,311.0125,4.047861,0.1210224,0.37460929,56.1652,12/02.0/2025,2000,g 12.5,4.0
# From MPEC 2025-W75
209P/LINEAR,e,21.2846,62.7570,152.4749,2.957355,0.1937978,0.67410578,97.9639,12/02.0/2025,2000,g 17.0,2.0
# From MPEC 2025-W75
